CORVUS BC4              
1 43767U 18099K   26068.65923737  .00005714  00000+0  33980-3 0  9990
2 43767  97.4206 114.5457 0008046 356.5821   3.5354 15.11615710397368
STARLINK-4746           
1 53846U 22114AE  26068.88440441  .00000833  00000+0  70400-4 0  9999
2 53846  53.2175 293.0663 0001436  75.7728 284.3423 15.08838622193002
